{
    "links": {
        "self": "http://www.neowsapp.com/rest/v1/neo/3610179?api_key=iIulBulltgU6a56xZRHN4H3l9WmuAYTsLGpBGhQ2"
    },
    "id": "3610179",
    "neo_reference_id": "3610179",
    "name": "(2012 TK79)",
    "designation": "2012 TK79",
    "nasa_jpl_url": "http://ssd.jpl.nasa.gov/sbdb.cgi?sstr=3610179",
    "absolute_magnitude_h": 23.5,
    "estimated_diameter": {
        "kilometers": {
            "estimated_diameter_min": 0.0530340723,
            "estimated_diameter_max": 0.1185877909
        },
        "meters": {
            "estimated_diameter_min": 53.0340723319,
            "estimated_diameter_max": 118.5877908577
        },
        "miles": {
            "estimated_diameter_min": 0.0329538346,
            "estimated_diameter_max": 0.0736870142
        },
        "feet": {
            "estimated_diameter_min": 173.9963058693,
            "estimated_diameter_max": 389.0675677576
        }
    },
    "is_potentially_hazardous_asteroid": false,
    "close_approach_data": [
        {
            "close_approach_date": "2012-10-05",
            "close_approach_date_full": "2012-Oct-05 05:28",
            "epoch_date_close_approach": 1349414880000,
            "relative_velocity": {
                "kilometers_per_second": "8.3876147097",
                "kilometers_per_hour": "30195.4129550387",
                "miles_per_hour": "18762.2553442017"
            },
            "miss_distance": {
                "astronomical": "0.1439849624",
                "lunar": "56.0101503736",
                "kilometers": "21539843.687070088",
                "miles": "13384238.2317716944"
            },
            "orbiting_body": "Earth"
        }
    ],
    "orbital_data": {
        "orbit_id": "8",
        "orbit_determination_date": "2017-04-06 08:48:39",
        "first_observation_date": "2012-10-10",
        "last_observation_date": "2012-11-03",
        "data_arc_in_days": 24,
        "observations_used": 17,
        "orbit_uncertainty": "7",
        "minimum_orbit_intersection": ".139189",
        "jupiter_tisserand_invariant": "3.153",
        "epoch_osculation": "2459000.5",
        "eccentricity": ".5654644229052374",
        "semi_major_axis": "2.590555756668298",
        "inclination": "10.59282245398144",
        "ascending_node_longitude": "24.9894466889566",
        "orbital_period": "1522.95770684852",
        "perihelion_distance": "1.125688640720018",
        "perihelion_argument": "337.0994506006889",
        "aphelion_distance": "4.055422872616577",
        "perihelion_time": "2459241.466684127823",
        "mean_anomaly": "303.0397798337253",
        "mean_motion": ".2363821387692726",
        "equinox": "J2000",
        "orbit_class": {
            "orbit_class_type": "AMO",
            "orbit_class_description": "Near-Earth asteroid orbits similar to that of 1221 Amor",
            "orbit_class_range": "1.017 AU < q (perihelion) < 1.3 AU"
        }
    },
    "is_sentry_object": false
}